{
  "norad_id": 63445,
  "name": "STARLINK-33659",
  "history": [
    {
      "epoch": "2026-03-28T07:47:33.393120Z",
      "apogee_km": 476.05445642122595,
      "perigee_km": 474.2961706140695,
      "latitude_deg": -4.1069028201666035e-05,
      "longitude_deg": 113.57956461172506,
      "height_km": 476.1220653956967,
      "semi_major_axis_km": 6853.312313517647,
      "eccentricity": 0.00012828,
      "inclination_deg": 53.1599,
      "raan_deg": 56.2155,
      "arg_perigee_deg": 93.175,
      "mean_anomaly_deg": 266.9397,
      "mean_motion_rev_day": 15.30213315
    },
    {
      "epoch": "2026-03-29T04:10:14.669760Z",
      "apogee_km": 476.0693379403501,
      "perigee_km": 474.2545843754351,
      "latitude_deg": 4.597617376379689e-05,
      "longitude_deg": 163.12484312942502,
      "height_km": 475.9563656008529,
      "semi_major_axis_km": 6853.298961157892,
      "eccentricity": 0.0001324,
      "inclination_deg": 53.1601,
      "raan_deg": 52.2696,
      "arg_perigee_deg": 83.4426,
      "mean_anomaly_deg": 276.6726,
      "mean_motion_rev_day": 15.30217787
    },
    {
      "epoch": "2026-03-30T03:41:02.911488Z",
      "apogee_km": 476.0437266962281,
      "perigee_km": 474.3373852013483,
      "latitude_deg": 2.4070274376254635e-05,
      "longitude_deg": 164.9090591613013,
      "height_km": 475.4430566079041,
      "semi_major_axis_km": 6853.327555948788,
      "eccentricity": 0.00012449,
      "inclination_deg": 53.1603,
      "raan_deg": 47.7205,
      "arg_perigee_deg": 40.7604,
      "mean_anomaly_deg": 319.349,
      "mean_motion_rev_day": 15.3020821
    },
    {
      "epoch": "2026-03-30T14:39:25.522848Z",
      "apogee_km": 476.12406621445007,
      "perigee_km": 474.2768176403524,
      "latitude_deg": -4.692196097380373e-06,
      "longitude_deg": -2.2623186842703022,
      "height_km": 476.2521081861429,
      "semi_major_axis_km": 6853.3374419274005,
      "eccentricity": 0.00013477,
      "inclination_deg": 53.1608,
      "raan_deg": 45.594,
      "arg_perigee_deg": 99.572,
      "mean_anomaly_deg": 260.5433,
      "mean_motion_rev_day": 15.30204899
    },
    {
      "epoch": "2026-03-30T20:55:38.322048Z",
      "apogee_km": 476.379380263862,
      "perigee_km": 473.95988888959164,
      "latitude_deg": 1.1362948411088368e-05,
      "longitude_deg": -97.78604528831376,
      "height_km": 476.3130629617902,
      "semi_major_axis_km": 6853.3066345767265,
      "eccentricity": 0.00017652,
      "inclination_deg": 53.1609,
      "raan_deg": 44.3811,
      "arg_perigee_deg": 101.728,
      "mean_anomaly_deg": 258.3919,
      "mean_motion_rev_day": 15.30215217
    },
    {
      "epoch": "2026-03-31T20:26:26.596608Z",
      "apogee_km": 476.53853643278126,
      "perigee_km": 473.87943818970416,
      "latitude_deg": 5.1868069697288424e-06,
      "longitude_deg": -95.99985396500618,
      "height_km": 475.9257330873922,
      "semi_major_axis_km": 6853.345987311242,
      "eccentricity": 0.000194,
      "inclination_deg": 53.1611,
      "raan_deg": 39.8341,
      "arg_perigee_deg": 82.1962,
      "mean_anomaly_deg": 277.9259,
      "mean_motion_rev_day": 15.30202037
    },
    {
      "epoch": "2026-04-01T13:41:01.530240Z",
      "apogee_km": 476.18027937023726,
      "perigee_km": 474.17499950673755,
      "latitude_deg": 5.316602313580169e-05,
      "longitude_deg": 1.3070795167825011,
      "height_km": 476.1072154589936,
      "semi_major_axis_km": 6853.314639438488,
      "eccentricity": 0.0001463,
      "inclination_deg": 53.1631,
      "raan_deg": 36.4947,
      "arg_perigee_deg": 91.7968,
      "mean_anomaly_deg": 268.3201,
      "mean_motion_rev_day": 15.30212536
    },
    {
      "epoch": "2026-04-02T19:28:01.301952Z",
      "apogee_km": 476.25339374504347,
      "perigee_km": 474.00524826110177,
      "latitude_deg": 2.3648026292286058e-05,
      "longitude_deg": -92.4289456087698,
      "height_km": 476.0166215728407,
      "semi_major_axis_km": 6853.266321003072,
      "eccentricity": 0.00016402,
      "inclination_deg": 53.1624,
      "raan_deg": 30.7309,
      "arg_perigee_deg": 89.4636,
      "mean_anomaly_deg": 270.6553,
      "mean_motion_rev_day": 15.30228719
    },
    {
      "epoch": "2026-04-03T18:58:50.563200Z",
      "apogee_km": 476.07481403784095,
      "perigee_km": 474.47933924079825,
      "latitude_deg": 1.763779402704205e-05,
      "longitude_deg": -90.65007788828757,
      "height_km": 476.37829324664807,
      "semi_major_axis_km": 6853.414076639319,
      "eccentricity": 0.0001164,
      "inclination_deg": 53.1612,
      "raan_deg": 26.1807,
      "arg_perigee_deg": 104.7296,
      "mean_anomaly_deg": 255.3834,
      "mean_motion_rev_day": 15.30179233
    },
    {
      "epoch": "2026-04-04T12:13:25.588416Z",
      "apogee_km": 476.1156082193311,
      "perigee_km": 474.1768143988511,
      "latitude_deg": 3.359607774123146e-05,
      "longitude_deg": 6.658247684386472,
      "height_km": 476.4297461416988,
      "semi_major_axis_km": 6853.283211309091,
      "eccentricity": 0.00014145,
      "inclination_deg": 53.1614,
      "raan_deg": 22.8431,
      "arg_perigee_deg": 113.423,
      "mean_anomaly_deg": 246.692,
      "mean_motion_rev_day": 15.30223062
    },
    {
      "epoch": "2026-04-05T11:44:14.111808Z",
      "apogee_km": 475.92326885036346,
      "perigee_km": 474.59919231221465,
      "latitude_deg": -6.136414439933593e-06,
      "longitude_deg": 8.441371683373506,
      "height_km": 476.2633419829546,
      "semi_major_axis_km": 6853.398230581289,
      "eccentricity": 9.66e-05,
      "inclination_deg": 53.1603,
      "raan_deg": 18.2941,
      "arg_perigee_deg": 99.0017,
      "mean_anomaly_deg": 261.1093,
      "mean_motion_rev_day": 15.3018454
    },
    {
      "epoch": "2026-04-06T00:16:39.496800Z",
      "apogee_km": 475.90030593258143,
      "perigee_km": 474.4376733682702,
      "latitude_deg": 4.241085487329706e-05,
      "longitude_deg": 177.39332080848246,
      "height_km": 476.184271781863,
      "semi_major_axis_km": 6853.3059896504255,
      "eccentricity": 0.00010671,
      "inclination_deg": 53.1605,
      "raan_deg": 15.8668,
      "arg_perigee_deg": 99.1951,
      "mean_anomaly_deg": 260.9171,
      "mean_motion_rev_day": 15.30215433
    },
    {
      "epoch": "2026-04-07T10:45:49.048704Z",
      "apogee_km": 475.97190891437003,
      "perigee_km": 474.39454873050363,
      "latitude_deg": 1.0803439578984166e-05,
      "longitude_deg": 12.012204747142526,
      "height_km": 476.16504630889256,
      "semi_major_axis_km": 6853.320228822437,
      "eccentricity": 0.00011508,
      "inclination_deg": 53.1593,
      "raan_deg": 9.1918,
      "arg_perigee_deg": 96.0881,
      "mean_anomaly_deg": 264.0251,
      "mean_motion_rev_day": 15.30210664
    },
    {
      "epoch": "2026-04-07T18:36:04.994784Z",
      "apogee_km": 476.37911336756497,
      "perigee_km": 473.96400743088,
      "latitude_deg": -5.74056482790825e-07,
      "longitude_deg": -107.38963216782358,
      "height_km": 476.52210891981775,
      "semi_major_axis_km": 6853.308560399222,
      "eccentricity": 0.0001762,
      "inclination_deg": 53.1597,
      "raan_deg": 7.6783,
      "arg_perigee_deg": 112.0337,
      "mean_anomaly_deg": 248.0851,
      "mean_motion_rev_day": 15.30214572
    },
    {
      "epoch": "2026-04-08T10:16:37.299072Z",
      "apogee_km": 475.8714357508079,
      "perigee_km": 474.5558665598119,
      "latitude_deg": 2.5661727032026332e-05,
      "longitude_deg": 13.795108535533936,
      "height_km": 476.10625085011515,
      "semi_major_axis_km": 6853.35065115531,
      "eccentricity": 9.598e-05,
      "inclination_deg": 53.1586,
      "raan_deg": 4.6414,
      "arg_perigee_deg": 89.5,
      "mean_anomaly_deg": 270.6111,
      "mean_motion_rev_day": 15.30200475
    },
    {
      "epoch": "2026-04-09T00:23:06.058176Z",
      "apogee_km": 475.89240388048347,
      "perigee_km": 474.5625770347551,
      "latitude_deg": 3.226598110498987e-05,
      "longitude_deg": 158.8664875376583,
      "height_km": 476.07908175375456,
      "semi_major_axis_km": 6853.3644904576195,
      "eccentricity": 9.702e-05,
      "inclination_deg": 53.1594,
      "raan_deg": 1.912,
      "arg_perigee_deg": 85.962,
      "mean_anomaly_deg": 274.1492,
      "mean_motion_rev_day": 15.3019584
    },
    {
      "epoch": "2026-04-09T23:53:53.867904Z",
      "apogee_km": 475.8967249208181,
      "perigee_km": 474.58923708804105,
      "latitude_deg": 7.064609108857889e-06,
      "longitude_deg": 160.6501025952209,
      "height_km": 475.9877179710291,
      "semi_major_axis_km": 6853.379981004429,
      "eccentricity": 9.539e-05,
      "inclination_deg": 53.1594,
      "raan_deg": 357.3605,
      "arg_perigee_deg": 76.399,
      "mean_anomaly_deg": 283.7117,
      "mean_motion_rev_day": 15.30190652
    },
    {
      "epoch": "2026-04-11T02:32:48.286752Z",
      "apogee_km": 476.0426449785846,
      "perigee_km": 474.50076508812526,
      "latitude_deg": 3.4397810400372733e-05,
      "longitude_deg": 114.67176225613677,
      "height_km": 476.1918435798369,
      "semi_major_axis_km": 6853.408705033355,
      "eccentricity": 0.00011249,
      "inclination_deg": 53.1602,
      "raan_deg": 352.2033,
      "arg_perigee_deg": 91.6246,
      "mean_anomaly_deg": 268.4884,
      "mean_motion_rev_day": 15.30181032
    },
    {
      "epoch": "2026-04-12T22:26:17.926080Z",
      "apogee_km": 476.38135118516675,
      "perigee_km": 474.0238023707552,
      "latitude_deg": -1.7637576074767076e-05,
      "longitude_deg": 165.99876183664543,
      "height_km": 476.19610163957555,
      "semi_major_axis_km": 6853.33957677796,
      "eccentricity": 0.000172,
      "inclination_deg": 53.162,
      "raan_deg": 343.7064,
      "arg_perigee_deg": 94.6643,
      "mean_anomaly_deg": 265.4554,
      "mean_motion_rev_day": 15.30204184
    }
  ]
}